[{"OBJECT_NAME":"STARLINK-11681 [DTC]","OBJECT_ID":"2025-089E","EPOCH":"2026-03-08T23:53:44.319840","MEAN_MOTION":15.7091411,"ECCENTRICITY":0.0001807,"INCLINATION":43,"RA_OF_ASC_NODE":296.6686,"ARG_OF_PERICENTER":299.2612,"MEAN_ANOMALY":60.8075,"EPHEMERIS_TYPE":0,"CLASSIFICATION_TYPE":"U","NORAD_CAT_ID":63755,"ELEMENT_SET_NO":999,"REV_AT_EPOCH":5002,"BSTAR":0.0028339503,"MEAN_MOTION_DOT":0.00381571,"MEAN_MOTION_DDOT":0},{"OBJECT_NAME":"H-2A R\/B","OBJECT_ID":"2024-176B","EPOCH":"2026-03-09T21:03:59.315040","MEAN_MOTION":15.71096114,"ECCENTRICITY":0.00080006,"INCLINATION":97.2628,"RA_OF_ASC_NODE":207.174,"ARG_OF_PERICENTER":279.669,"MEAN_ANOMALY":80.367,"EPHEMERIS_TYPE":0,"CLASSIFICATION_TYPE":"U","NORAD_CAT_ID":61440,"ELEMENT_SET_NO":999,"REV_AT_EPOCH":8169,"BSTAR":0.00086786138,"MEAN_MOTION_DOT":0.00110274,"MEAN_MOTION_DDOT":0}]
